ORBCOMM FM20 [+]        
1 25416U 98046D   24041.92259173  .00002235  00000+0  82887-3 0  9991
2 25416  44.9965 348.0876 0001934 310.2647  49.8031 14.34870397333508
ORBCOMM FM15 [-]        
1 25418U 98046F   24042.22623607  .00002684  00000+0  97357-3 0  9990
2 25418  44.9989 346.9060 0004809 337.5603  22.5033 14.35465393333480
ORBCOMM FM14 [-]        
1 25419U 98046G   24042.21781079  .00002872  00000+0  10356-2 0  9990
2 25419  44.9981 346.1708 0003817 327.2350 172.8797 14.35603355333430
ORBCOMM FM13 [+]        
1 25420U 98046H   24042.19423771  .00002394  00000+0  88227-3 0  9993
2 25420  44.9993 350.6806 0006063 324.1713  35.8727 14.34964725332507
ORBCOMM FM21 [-]        
1 25475U 98053A   24042.49037054  .00001779  00000+0  66895-3 0  9992
2 25475  45.0093  73.4923 0002672 271.5720  88.4821 14.34940735326568
ORBCOMM FM22 [-]        
1 25476U 98053B   24042.08070490  .00002931  00000+0  10604-2 0  9996
2 25476  45.0080  73.0495 0004434 272.0572  87.9768 14.35389409326496
ORBCOMM FM23 [-]        
1 25477U 98053C   24042.10286274  .00002481  00000+0  91296-3 0  9996
2 25477  45.0093  77.7683 0003705 269.0673  90.9749 14.34958621326657
